COSMOS 2151             
1 21422U 91042A   25332.61115999  .00001887  00000+0  15096-3 0  9990
2 21422  82.4967 181.1173 0013730  45.1916 315.0421 14.99608175848041
SL-14 R/B               
1 21423U 91042B   25332.46554254  .00000512  00000+0  61891-4 0  9994
2 21423  82.4916 315.1101 0016196 209.1484 150.8828 14.81718220838080
ERS-1                   
1 21574U 91050A   25332.62528739  .00000334  00000+0  12162-3 0  9995
2 21574  98.7914 343.3269 0032675 140.7186 219.6380 14.39347684801196
ARIANE 40 R/B           
1 21610U 91050F   25332.63910107  .00000372  00000+0  12408-3 0  9996
2 21610  98.2186  23.5774 0003632  39.7255 320.4201 14.42794784804429
INTERCOSMOS 25          
1 21819U 91086A   25332.59995425  .00001519  00000+0  29964-3 0  9996
2 21819  82.6068  11.1266 1487374 334.8901  18.6398 12.11649836484442
SL-8 R/B                
1 21876U 92008B   25332.58442395  .00000147  00000+0  13459-3 0  9994
2 21876  82.9265 342.9767 0035879  58.4285  63.7092 13.75954283695510
SL-8 R/B                
1 21938U 92020B   25332.65680086  .00000074  00000+0  60956-4 0  9990
2 21938  82.9316 228.7739 0028034 218.1063 204.0498 13.75524263687242
USA 81                  
1 21949U 92023A   25332.64289182  .00000194  00000+0  64358-4 0  9999
2 21949  85.0091 189.7054 0002069  64.6523 295.4884 14.32319180 80322
COSMOS 2219             
1 22219U 92076A   25332.43527275 -.00000246  00000+0 -10451-3 0  9997
2 22219  71.0602 229.7336 0018667 346.8033  13.2599 14.14065650704069
SL-16 R/B               
1 22220U 92076B   25332.60557426  .00000263  00000+0  15492-3 0  9996
2 22220  71.0016  41.3050 0015070 252.5028 212.0732 14.16839161707512
COSMOS 2221             
1 22236U 92080A   25332.63519842  .00001699  00000+0  15012-3 0  9993
2 22236  82.5057  15.8247 0014992 166.3547 193.8083 14.95678875765682
SL-16 R/B               
1 22285U 92093B   25332.39783288 -.00000244  00000+0 -10072-3 0  9999
2 22285  71.0209 216.9013 0001959 115.7114 244.4211 14.15426784698829
