CCSDS_OMM_VERS = 2.0
CREATION_DATE  = 
ORIGINATOR     = 

OBJECT_NAME    = COSMOS 2151
OBJECT_ID      = 1991-042A
CENTER_NAME    = EARTH
REF_FRAME      = TEME
TIME_SYSTEM    = UTC
MEAN_ELEMENT_THEORY = SGP/SGP4

EPOCH          = 2025-11-28T14:40:04.223136
MEAN_MOTION    = 14.99608175
ECCENTRICITY   = .00137309
INCLINATION    = 82.4967
RA_OF_ASC_NODE = 181.1173
ARG_OF_PERICENTER = 45.1916
MEAN_ANOMALY   = 315.0421

EPHEMERIS_TYPE = 0
CLASSIFICATION_TYPE = U
NORAD_CAT_ID   = 21422
ELEMENT_SET_NO = 999
REV_AT_EPOCH   = 84804
BSTAR          = .15096053E-3
MEAN_MOTION_DOT = .1887E-4
MEAN_MOTION_DDOT = 0

CCSDS_OMM_VERS = 2.0
CREATION_DATE  = 
ORIGINATOR     = 

OBJECT_NAME    = SL-14 R/B
OBJECT_ID      = 1991-042B
CENTER_NAME    = EARTH
REF_FRAME      = TEME
TIME_SYSTEM    = UTC
MEAN_ELEMENT_THEORY = SGP/SGP4

EPOCH          = 2025-11-28T11:10:22.875456
MEAN_MOTION    = 14.81718220
ECCENTRICITY   = .00161962
INCLINATION    = 82.4916
RA_OF_ASC_NODE = 315.1101
ARG_OF_PERICENTER = 209.1484
MEAN_ANOMALY   = 150.8828

EPHEMERIS_TYPE = 0
CLASSIFICATION_TYPE = U
NORAD_CAT_ID   = 21423
ELEMENT_SET_NO = 999
REV_AT_EPOCH   = 83808
BSTAR          = .61891124E-4
MEAN_MOTION_DOT = .512E-5
MEAN_MOTION_DDOT = 0

CCSDS_OMM_VERS = 2.0
CREATION_DATE  = 
ORIGINATOR     = 

OBJECT_NAME    = ERS-1
OBJECT_ID      = 1991-050A
CENTER_NAME    = EARTH
REF_FRAME      = TEME
TIME_SYSTEM    = UTC
MEAN_ELEMENT_THEORY = SGP/SGP4

EPOCH          = 2025-11-28T15:00:24.830496
MEAN_MOTION    = 14.39347684
ECCENTRICITY   = .00326759
INCLINATION    = 98.7914
RA_OF_ASC_NODE = 343.3269
ARG_OF_PERICENTER = 140.7186
MEAN_ANOMALY   = 219.6380

EPHEMERIS_TYPE = 0
CLASSIFICATION_TYPE = U
NORAD_CAT_ID   = 21574
ELEMENT_SET_NO = 999
REV_AT_EPOCH   = 80119
BSTAR          = .12161798E-3
MEAN_MOTION_DOT = .334E-5
MEAN_MOTION_DDOT = 0

CCSDS_OMM_VERS = 2.0
CREATION_DATE  = 
ORIGINATOR     = 

OBJECT_NAME    = ARIANE 40 R/B
OBJECT_ID      = 1991-050F
CENTER_NAME    = EARTH
REF_FRAME      = TEME
TIME_SYSTEM    = UTC
MEAN_ELEMENT_THEORY = SGP/SGP4

EPOCH          = 2025-11-28T15:20:18.332448
MEAN_MOTION    = 14.42794784
ECCENTRICITY   = .0003632
INCLINATION    = 98.2186
RA_OF_ASC_NODE = 23.5774
ARG_OF_PERICENTER = 39.7255
MEAN_ANOMALY   = 320.4201

EPHEMERIS_TYPE = 0
CLASSIFICATION_TYPE = U
NORAD_CAT_ID   = 21610
ELEMENT_SET_NO = 999
REV_AT_EPOCH   = 80442
BSTAR          = .12407736E-3
MEAN_MOTION_DOT = .372E-5
MEAN_MOTION_DDOT = 0

CCSDS_OMM_VERS = 2.0
CREATION_DATE  = 
ORIGINATOR     = 

OBJECT_NAME    = INTERCOSMOS 25
OBJECT_ID      = 1991-086A
CENTER_NAME    = EARTH
REF_FRAME      = TEME
TIME_SYSTEM    = UTC
MEAN_ELEMENT_THEORY = SGP/SGP4

EPOCH          = 2025-11-28T14:23:56.047200
MEAN_MOTION    = 12.11649836
ECCENTRICITY   = .14873746
INCLINATION    = 82.6068
RA_OF_ASC_NODE = 11.1266
ARG_OF_PERICENTER = 334.8901
MEAN_ANOMALY   = 18.6398

EPHEMERIS_TYPE = 0
CLASSIFICATION_TYPE = U
NORAD_CAT_ID   = 21819
ELEMENT_SET_NO = 999
REV_AT_EPOCH   = 48444
BSTAR          = .29964114E-3
MEAN_MOTION_DOT = .1519E-4
MEAN_MOTION_DDOT = 0

CCSDS_OMM_VERS = 2.0
CREATION_DATE  = 
ORIGINATOR     = 

OBJECT_NAME    = SL-8 R/B
OBJECT_ID      = 1992-008B
CENTER_NAME    = EARTH
REF_FRAME      = TEME
TIME_SYSTEM    = UTC
MEAN_ELEMENT_THEORY = SGP/SGP4

EPOCH          = 2025-11-28T14:01:34.229280
MEAN_MOTION    = 13.75954283
ECCENTRICITY   = .00358794
INCLINATION    = 82.9265
RA_OF_ASC_NODE = 342.9767
ARG_OF_PERICENTER = 58.4285
MEAN_ANOMALY   = 63.7092

EPHEMERIS_TYPE = 0
CLASSIFICATION_TYPE = U
NORAD_CAT_ID   = 21876
ELEMENT_SET_NO = 999
REV_AT_EPOCH   = 69551
BSTAR          = .13458817E-3
MEAN_MOTION_DOT = .147E-5
MEAN_MOTION_DDOT = 0

CCSDS_OMM_VERS = 2.0
CREATION_DATE  = 
ORIGINATOR     = 

OBJECT_NAME    = SL-8 R/B
OBJECT_ID      = 1992-020B
CENTER_NAME    = EARTH
REF_FRAME      = TEME
TIME_SYSTEM    = UTC
MEAN_ELEMENT_THEORY = SGP/SGP4

EPOCH          = 2025-11-28T15:45:47.594304
MEAN_MOTION    = 13.75524263
ECCENTRICITY   = .00280343
INCLINATION    = 82.9316
RA_OF_ASC_NODE = 228.7739
ARG_OF_PERICENTER = 218.1063
MEAN_ANOMALY   = 204.0498

EPHEMERIS_TYPE = 0
CLASSIFICATION_TYPE = U
NORAD_CAT_ID   = 21938
ELEMENT_SET_NO = 999
REV_AT_EPOCH   = 68724
BSTAR          = .60956401E-4
MEAN_MOTION_DOT = .74E-6
MEAN_MOTION_DDOT = 0

CCSDS_OMM_VERS = 2.0
CREATION_DATE  = 
ORIGINATOR     = 

OBJECT_NAME    = USA 81
OBJECT_ID      = 1992-023A
CENTER_NAME    = EARTH
REF_FRAME      = TEME
TIME_SYSTEM    = UTC
MEAN_ELEMENT_THEORY = SGP/SGP4

EPOCH          = 2025-11-28T15:25:45.853248
MEAN_MOTION    = 14.32319180
ECCENTRICITY   = .00020693
INCLINATION    = 85.0091
RA_OF_ASC_NODE = 189.7054
ARG_OF_PERICENTER = 64.6523
MEAN_ANOMALY   = 295.4884

EPHEMERIS_TYPE = 0
CLASSIFICATION_TYPE = U
NORAD_CAT_ID   = 21949
ELEMENT_SET_NO = 999
REV_AT_EPOCH   = 8032
BSTAR          = .64358311E-4
MEAN_MOTION_DOT = .194E-5
MEAN_MOTION_DDOT = 0

CCSDS_OMM_VERS = 2.0
CREATION_DATE  = 
ORIGINATOR     = 

OBJECT_NAME    = COSMOS 2219
OBJECT_ID      = 1992-076A
CENTER_NAME    = EARTH
REF_FRAME      = TEME
TIME_SYSTEM    = UTC
MEAN_ELEMENT_THEORY = SGP/SGP4

EPOCH          = 2025-11-28T10:26:47.565600
MEAN_MOTION    = 14.14065650
ECCENTRICITY   = .0018667
INCLINATION    = 71.0602
RA_OF_ASC_NODE = 229.7336
ARG_OF_PERICENTER = 346.8033
MEAN_ANOMALY   = 13.2599

EPHEMERIS_TYPE = 0
CLASSIFICATION_TYPE = U
NORAD_CAT_ID   = 22219
ELEMENT_SET_NO = 999
REV_AT_EPOCH   = 70406
BSTAR          = -.10450986E-3
MEAN_MOTION_DOT = -.246E-5
MEAN_MOTION_DDOT = 0

CCSDS_OMM_VERS = 2.0
CREATION_DATE  = 
ORIGINATOR     = 

OBJECT_NAME    = SL-16 R/B
OBJECT_ID      = 1992-076B
CENTER_NAME    = EARTH
REF_FRAME      = TEME
TIME_SYSTEM    = UTC
MEAN_ELEMENT_THEORY = SGP/SGP4

EPOCH          = 2025-11-28T14:32:01.616064
MEAN_MOTION    = 14.16839161
ECCENTRICITY   = .00150709
INCLINATION    = 71.0016
RA_OF_ASC_NODE = 41.3050
ARG_OF_PERICENTER = 252.5028
MEAN_ANOMALY   = 212.0732

EPHEMERIS_TYPE = 0
CLASSIFICATION_TYPE = U
NORAD_CAT_ID   = 22220
ELEMENT_SET_NO = 999
REV_AT_EPOCH   = 70751
BSTAR          = .15491718E-3
MEAN_MOTION_DOT = .263E-5
MEAN_MOTION_DDOT = 0

CCSDS_OMM_VERS = 2.0
CREATION_DATE  = 
ORIGINATOR     = 

OBJECT_NAME    = COSMOS 2221
OBJECT_ID      = 1992-080A
CENTER_NAME    = EARTH
REF_FRAME      = TEME
TIME_SYSTEM    = UTC
MEAN_ELEMENT_THEORY = SGP/SGP4

EPOCH          = 2025-11-28T15:14:41.143488
MEAN_MOTION    = 14.95678875
ECCENTRICITY   = .00149921
INCLINATION    = 82.5057
RA_OF_ASC_NODE = 15.8247
ARG_OF_PERICENTER = 166.3547
MEAN_ANOMALY   = 193.8083

EPHEMERIS_TYPE = 0
CLASSIFICATION_TYPE = U
NORAD_CAT_ID   = 22236
ELEMENT_SET_NO = 999
REV_AT_EPOCH   = 76568
BSTAR          = .15011919E-3
MEAN_MOTION_DOT = .1699E-4
MEAN_MOTION_DDOT = 0

CCSDS_OMM_VERS = 2.0
CREATION_DATE  = 
ORIGINATOR     = 

OBJECT_NAME    = SL-16 R/B
OBJECT_ID      = 1992-093B
CENTER_NAME    = EARTH
REF_FRAME      = TEME
TIME_SYSTEM    = UTC
MEAN_ELEMENT_THEORY = SGP/SGP4

EPOCH          = 2025-11-28T09:32:52.760832
MEAN_MOTION    = 14.15426784
ECCENTRICITY   = .0001959
INCLINATION    = 71.0209
RA_OF_ASC_NODE = 216.9013
ARG_OF_PERICENTER = 115.7114
MEAN_ANOMALY   = 244.4211

EPHEMERIS_TYPE = 0
CLASSIFICATION_TYPE = U
NORAD_CAT_ID   = 22285
ELEMENT_SET_NO = 999
REV_AT_EPOCH   = 69882
BSTAR          = -.1007206E-3
MEAN_MOTION_DOT = -.244E-5
MEAN_MOTION_DDOT = 0

